format  = 'OEF2.0'       ! file format
rectype = 'ML'           ! record type (1L/ML)
refsys  = ECLM J2000     ! default reference system
END_OF_HEADER
1862
! Equinoctial elements: a, e*sin(LP), e*cos(LP), tan(i/2)*sin(LN), tan(i/2)*cos(LN), mean long.
 EQU   1.47013273038031E+00  -0.347997484158907   0.438628697683124    0.032422559217972    0.045038608044293 174.9957294121928
 MJD     54668.051354402 TDT
 MAG  16.028  0.090
! Non-grav parameters: model used, actual number in use, dimension, list of solve for parameters to be currently determined
 LSP   1  2    7    2
! Vector of dynamical parameters.
 NGR   0.00000000000000E+00 -3.31653537720881E-05
! RMS    9.80702E-10   3.33256E-08   7.39427E-09   3.93253E-08   2.96578E-08   2.79935E-06   5.16508E-06
! EIG   7.88448E-11   6.53850E-10   1.17838E-09   1.40931E-08   3.85533E-08   4.71297E-08   5.16529E-06
! WEA   0.00002  -0.00406  -0.00070  -0.00181   0.00108  -0.00750   0.99996
 COV   9.617771177125969E-19  2.062865922750325E-17  5.056839235284434E-18
 COV  -1.649725273938415E-17  1.085212506235440E-17  9.986530367991427E-16
 COV   4.005312123928655E-16  1.110594008383063E-15  2.387130969018109E-16
 COV   1.148134570737017E-16  2.879336429442576E-16  8.870777982679315E-14
 COV  -1.082963331240061E-13  5.467526528455447E-17  4.078049913296190E-17
 COV   1.020073302189974E-16  1.817181849833788E-14 -1.861376015449642E-14
 COV   1.546479141463859E-15  6.773940773780355E-16  2.753850047705630E-14
 COV  -4.834808132413627E-14  8.795867890189417E-16  1.409502936390595E-14
 COV   2.888990344722331E-14  7.836377431756260E-12 -1.146076813487473E-11
 COV   2.667809968863685E-11
 NOR   1.579395366932266E+20 -1.704487499703810E+19  9.689222407876114E+18
 NOR  -1.463952583059926E+17  3.496354445193960E+17  1.466767984028297E+17
 NOR  -2.434746119642727E+15  3.126523710016040E+18 -1.704493711888561E+18
 NOR   3.391337161949094E+17 -4.067540057678575E+17 -2.956007021253064E+16
 NOR   1.146055473483406E+14  1.706722226047083E+18 -1.206810881359974E+17
 NOR   1.133714006675680E+17  1.407692702280608E+16 -1.679402932534146E+14
 NOR   8.651449875265210E+16 -1.013195649535507E+17 -3.709962855870857E+15
 NOR  -3.260564571225419E+13  1.220733122270583E+17  4.478635945642491E+15
 NOR   3.087087225364663E+13  2.881716634338536E+14 -1.521709486591908E+11
 NOR   2.641971955769838E+11
!MOID  0.02552    0
!NODES -0.11729  0.18607
